start=new Date('2022-11-15T00:00:00.000Z').valueOf();
sats=[{"TLE_LINE2":"2 45100  53.0552 282.1681 0001917  48.8743 311.2412 15.06401267154525","EPHEMERIS_TYPE":"0","MEAN_MOTION":"15.06401267","TIME_SYSTEM":"UTC","DECAY_DATE":null,"OBJECT_TYPE":"PAYLOAD","COUNTRY_CODE":"US","APOAPSIS":"548.537","MEAN_MOTION_DOT":"0.00001599","NORAD_CAT_ID":"45100","CLASSIFICATION_TYPE":"U","REF_FRAME":"TEME","BSTAR":"0.00012624000000","INCLINATION":"53.0552","FILE":"3656014","OBJECT_NAME":"STARLINK-1193","REV_AT_EPOCH":"15452","ELEMENT_SET_NO":"999","ECCENTRICITY":"0.00019170","CENTER_NAME":"EARTH","ARG_OF_PERICENTER":"48.8743","GP_ID":"217781415","PERIOD":"95.592","PERIAPSIS":"545.882","MEAN_ANOMALY":"311.2412","EPOCH":"2022-11-14T21:06:21.525984","TLE_LINE1":"1 45100U 20006BJ  22318.87941581  .00001599  00000-0  12624-3 0  9999","MEAN_MOTION_DDOT":"0.0000000000000","MEAN_ELEMENT_THEORY":"SGP4","RCS_SIZE":"LARGE","LAUNCH_DATE":"2020-01-29","SITE":"AFETR","RA_OF_ASC_NODE":"282.1681","OBJECT_ID":"2020-006BJ","SEMIMAJOR_AXIS":"6925.345"},{"EPHEMERIS_TYPE":"0","TLE_LINE2":"2 45101  53.0561 284.2479 0001990  46.8843 313.2312 15.06392952154457","DECAY_DATE":null,"TIME_SYSTEM":"UTC","COUNTRY_CODE":"US","OBJECT_TYPE":"PAYLOAD","MEAN_MOTION":"15.06392952","MEAN_MOTION_DOT":"-0.00000733","APOAPSIS":"548.613","BSTAR":"-0.00003031500000","NORAD_CAT_ID":"45101","REF_FRAME":"TEME","CLASSIFICATION_TYPE":"U","CENTER_NAME":"EARTH","ELEMENT_SET_NO":"999","ECCENTRICITY":"0.00019900","REV_AT_EPOCH":"15445","ARG_OF_PERICENTER":"46.8843","FILE":"3654975","INCLINATION":"53.0561","OBJECT_NAME":"STARLINK-1194","PERIAPSIS":"545.857","GP_ID":"217737497","PERIOD":"95.593","MEAN_MOTION_DDOT":"0.0000000000000","RCS_SIZE":"LARGE","MEAN_ELEMENT_THEORY":"SGP4","MEAN_ANOMALY":"313.2312","TLE_LINE1":"1 45101U 20006BK  22318.41036831 -.00000733  00000-0 -30315-4 0  9992","EPOCH":"2022-11-14T09:50:55.821984","SEMIMAJOR_AXIS":"6925.370","OBJECT_ID":"2020-006BK","LAUNCH_DATE":"2020-01-29","RA_OF_ASC_NODE":"284.2479","SITE":"AFETR"},{"GP_ID":"217782915","PERIOD":"95.592","PERIAPSIS":"546.148","INCLINATION":"53.0542","FILE":"3656014","OBJECT_NAME":"STARLINK-1195","ECCENTRICITY":"0.00015420","ELEMENT_SET_NO":"999","CENTER_NAME":"EARTH","REV_AT_EPOCH":"15448","ARG_OF_PERICENTER":"56.0502","LAUNCH_DATE":"2020-01-29","SITE":"AFETR","RA_OF_ASC_NODE":"283.2654","OBJECT_ID":"2020-006BL","SEMIMAJOR_AXIS":"6925.351","MEAN_ANOMALY":"304.0633","TLE_LINE1":"1 45102U 20006BL  22318.63246373  .00001914  00000-0  14733-3 0  9996","EPOCH":"2022-11-14T15:10:44.866272","MEAN_MOTION_DDOT":"0.0000000000000","RCS_SIZE":"LARGE","MEAN_ELEMENT_THEORY":"SGP4","MEAN_MOTION":"15.06399096","TIME_SYSTEM":"UTC","DECAY_DATE":null,"COUNTRY_CODE":"US","OBJECT_TYPE":"PAYLOAD","TLE_LINE2":"2 45102  53.0542 283.2654 0001542  56.0502 304.0633 15.06399096154482","EPHEMERIS_TYPE":"0","CLASSIFICATION_TYPE":"U","REF_FRAME":"TEME","NORAD_CAT_ID":"45102","BSTAR":"0.00014733000000","APOAPSIS":"548.284","MEAN_MOTION_DOT":"0.00001914"},{"PERIAPSIS":"546.095","GP_ID":"217782647","PERIOD":"95.592","ELEMENT_SET_NO":"999","ECCENTRICITY":"0.00016260","CENTER_NAME":"EARTH","REV_AT_EPOCH":"15448","ARG_OF_PERICENTER":"54.8809","INCLINATION":"53.0541","FILE":"3656014","OBJECT_NAME":"STARLINK-1196","SEMIMAJOR_AXIS":"6925.356","OBJECT_ID":"2020-006BM","LAUNCH_DATE":"2020-01-29","RA_OF_ASC_NODE":"283.4064","SITE":"AFETR","MEAN_MOTION_DDOT":"0.0000000000000","RCS_SIZE":"LARGE","MEAN_ELEMENT_THEORY":"SGP4","MEAN_ANOMALY":"305.2332","TLE_LINE1":"1 45103U 20006BM  22318.59834294 -.00001622  00000-0 -89988-4 0  9990","EPOCH":"2022-11-14T14:21:36.830016","TIME_SYSTEM":"UTC","DECAY_DATE":null,"COUNTRY_CODE":"US","OBJECT_TYPE":"PAYLOAD","MEAN_MOTION":"15.06397417","EPHEMERIS_TYPE":"0","TLE_LINE2":"2 45103  53.0541 283.4064 0001626  54.8809 305.2332 15.06397417154482","BSTAR":"-0.00008998800000","REF_FRAME":"TEME","CLASSIFICATION_TYPE":"U","NORAD_CAT_ID":"45103","MEAN_MOTION_DOT":"-0.00001622","APOAPSIS":"548.348"},{"PERIAPSIS":"546.330","GP_ID":"217781672","PERIOD":"95.592","REV_AT_EPOCH":"15226","ELEMENT_SET_NO":"999","ECCENTRICITY":"0.00012660","CENTER_NAME":"EARTH","ARG_OF_PERICENTER":"111.5826","INCLINATION":"53.0531","FILE":"3656014","OBJECT_NAME":"STARLINK-1138","SEMIMAJOR_AXIS":"6925.342","OBJECT_ID":"2020-012A","LAUNCH_DATE":"2020-02-17","RA_OF_ASC_NODE":"82.5909","SITE":"AFETR","MEAN_MOTION_DDOT":"0.0000000000000","MEAN_ELEMENT_THEORY":"SGP4","RCS_SIZE":"LARGE","MEAN_ANOMALY":"248.5298","EPOCH":"2022-11-14T18:48:21.307680","TLE_LINE1":"1 45178U 20012A   22318.78357995  .00011098  00000-0  76269-3 0  9991","TIME_SYSTEM":"UTC","DECAY_DATE":null,"OBJECT_TYPE":"PAYLOAD","COUNTRY_CODE":"US","MEAN_MOTION":"15.06402153","EPHEMERIS_TYPE":"0","TLE_LINE2":"2 45178  53.0531  82.5909 0001266 111.5826 248.5298 15.06402153152267","BSTAR":"0.00076269000000","CLASSIFICATION_TYPE":"U","NORAD_CAT_ID":"45178","REF_FRAME":"TEME","MEAN_MOTION_DOT":"0.00011098","APOAPSIS":"548.084"},{"LAUNCH_DATE":"2020-02-17","SITE":"AFETR","RA_OF_ASC_NODE":"82.8737","OBJECT_ID":"2020-012B","SEMIMAJOR_AXIS":"6925.330","MEAN_ANOMALY":"275.5964","TLE_LINE1":"1 45179U 20012B   22318.71998070  .00004834  00000-0  34313-3 0  9994","EPOCH":"2022-11-14T17:16:46.332480","MEAN_MOTION_DDOT":"0.0000000000000","RCS_SIZE":"LARGE","MEAN_ELEMENT_THEORY":"SGP4","GP_ID":"217782922","PERIOD":"95.592","PERIAPSIS":"546.234","FILE":"3656014","INCLINATION":"53.0558","OBJECT_NAME":"STARLINK-1143","ELEMENT_SET_NO":"999","ECCENTRICITY":"0.00013880","CENTER_NAME":"EARTH","REV_AT_EPOCH":"15231","ARG_OF_PERICENTER":"84.5183","NORAD_CAT_ID":"45179","REF_FRAME":"TEME","CLASSIFICATION_TYPE":"U","BSTAR":"0.00034313000000","APOAPSIS":"548.157","MEAN_MOTION_DOT":"0.00004834","MEAN_MOTION":"15.06405892","TIME_SYSTEM":"UTC","DECAY_DATE":null,"COUNTRY_CODE":"US","OBJECT_TYPE":"PAYLOAD","TLE_LINE2":"2 45179  53.0558  82.8737 0001388  84.5183 275.5964 15.06405892152318","EPHEMERIS_TYPE":"0"},{"MEAN_MOTION_DOT":"0.00029794","APOAPSIS":"522.195","BSTAR":"0.00159330000000","CLASSIFICATION_TYPE":"U","REF_FRAME":"TEME","NORAD_CAT_ID":"45180","EPHEMERIS_TYPE":"0","TLE_LINE2":"2 45180  53.0502  76.6446 0001098  61.5695 298.5408 15.14849614152397","TIME_SYSTEM":"UTC","DECAY_DATE":null,"COUNTRY_CODE":"US","OBJECT_TYPE":"PAYLOAD","MEAN_MOTION":"15.14849614","MEAN_MOTION_DDOT":"0.0000000000000","RCS_SIZE":"LARGE","MEAN_ELEMENT_THEORY":"SGP4","MEAN_ANOMALY":"298.5408","TLE_LINE1":"1 45180U 20012C   22318.60654620  .00029794  00000-0  15933-2 0  9992","EPOCH":"2022-11-14T14:33:25.591680","SEMIMAJOR_AXIS":"6899.572","OBJECT_ID":"2020-012C","LAUNCH_DATE":"2020-02-17","SITE":"AFETR","RA_OF_ASC_NODE":"76.6446","ELEMENT_SET_NO":"999","ECCENTRICITY":"0.00010980","CENTER_NAME":"EARTH","REV_AT_EPOCH":"15239","ARG_OF_PERICENTER":"61.5695","INCLINATION":"53.0502","FILE":"3656014","OBJECT_NAME":"STARLINK-1192","PERIAPSIS":"520.680","GP_ID":"217782654","PERIOD":"95.059"},{"MEAN_MOTION":"15.06401802","OBJECT_TYPE":"PAYLOAD","COUNTRY_CODE":"US","DECAY_DATE":null,"TIME_SYSTEM":"UTC","TLE_LINE2":"2 45181  53.0544  82.6437 0001188  85.7487 274.3638 15.06401802152322","EPHEMERIS_TYPE":"0","CLASSIFICATION_TYPE":"U","NORAD_CAT_ID":"45181","REF_FRAME":"TEME","BSTAR":"-0.00005883300000","APOAPSIS":"548.031","MEAN_MOTION_DOT":"-0.00001158","PERIOD":"95.592","GP_ID":"217781923","PERIAPSIS":"546.385","OBJECT_NAME":"STARLINK-1200","INCLINATION":"53.0544","FILE":"3656014","ARG_OF_PERICENTER":"85.7487","REV_AT_EPOCH":"15232","ELEMENT_SET_NO":"999","ECCENTRICITY":"0.00011880","CENTER_NAME":"EARTH","SITE":"AFETR","RA_OF_ASC_NODE":"82.6437","LAUNCH_DATE":"2020-02-17","OBJECT_ID":"2020-012D","SEMIMAJOR_AXIS":"6925.343","EPOCH":"2022-11-14T18:32:26.223072","TLE_LINE1":"1 45181U 20012D   22318.77252573 -.00001158  00000-0 -58833-4 0  9996","MEAN_ANOMALY":"274.3638","MEAN_ELEMENT_THEORY":"SGP4","RCS_SIZE":"LARGE","MEAN_MOTION_DDOT":"0.0000000000000"},{"EPOCH":"2022-11-14T12:39:28.581696","TLE_LINE1":"1 45182U 20012E   22318.52741414 -.00001251  00000-0 -65141-4 0  9991","MEAN_ANOMALY":"272.4987","MEAN_ELEMENT_THEORY":"SGP4","RCS_SIZE":"LARGE","MEAN_MOTION_DDOT":"0.0000000000000","SITE":"AFETR","RA_OF_ASC_NODE":"63.7276","LAUNCH_DATE":"2020-02-17","OBJECT_ID":"2020-012E","SEMIMAJOR_AXIS":"6925.366","OBJECT_NAME":"STARLINK-1201","INCLINATION":"53.0570","FILE":"3656014","ARG_OF_PERICENTER":"87.6155","REV_AT_EPOCH":"15241","ELEMENT_SET_NO":"999","ECCENTRICITY":"0.00013380","CENTER_NAME":"EARTH","PERIOD":"95.593","GP_ID":"217782173","PERIAPSIS":"546.304","APOAPSIS":"548.158","MEAN_MOTION_DOT":"-0.00001251","CLASSIFICATION_TYPE":"U","NORAD_CAT_ID":"45182","REF_FRAME":"TEME","BSTAR":"-0.00006514100000","TLE_LINE2":"2 45182  53.0570  63.7276 0001338  87.6155 272.4987 15.06394328152413","EPHEMERIS_TYPE":"0","MEAN_MOTION":"15.06394328","OBJECT_TYPE":"PAYLOAD","COUNTRY_CODE":"US","TIME_SYSTEM":"UTC","DECAY_DATE":null},{"MEAN_MOTION_DOT":"-0.00001520","APOAPSIS":"548.105","BSTAR":"-0.00008315600000","REF_FRAME":"TEME","NORAD_CAT_ID":"45183","CLASSIFICATION_TYPE":"U","EPHEMERIS_TYPE":"0","TLE_LINE2":"2 45183  53.0546  82.7744 0001264  86.5911 273.5222 15.06394893152325","COUNTRY_CODE":"US","OBJECT_TYPE":"PAYLOAD","DECAY_DATE":null,"TIME_SYSTEM":"UTC","MEAN_MOTION":"15.06394893","RCS_SIZE":"LARGE","MEAN_ELEMENT_THEORY":"SGP4","MEAN_MOTION_DDOT":"0.0000000000000","TLE_LINE1":"1 45183U 20012F   22318.74304223 -.00001520  00000-0 -83156-4 0  9994","EPOCH":"2022-11-14T17:49:58.848672","MEAN_ANOMALY":"273.5222","SEMIMAJOR_AXIS":"6925.364","OBJECT_ID":"2020-012F","RA_OF_ASC_NODE":"82.7744","SITE":"AFETR","LAUNCH_DATE":"2020-02-17","ARG_OF_PERICENTER":"86.5911","ELEMENT_SET_NO":"999","CENTER_NAME":"EARTH","ECCENTRICITY":"0.00012640","REV_AT_EPOCH":"15232","OBJECT_NAME":"STARLINK-1202","FILE":"3656014","INCLINATION":"53.0546","PERIAPSIS":"546.354","PERIOD":"95.592","GP_ID":"217782424"}];
